[{"OBJECT_NAME":"ICESAT-2","OBJECT_ID":"2018-070A","EPOCH":"2026-03-09T22:54:12.225888","MEAN_MOTION":15.28328617,"ECCENTRICITY":0.00038245,"INCLINATION":91.9993,"RA_OF_ASC_NODE":264.2397,"ARG_OF_PERICENTER":123.8941,"MEAN_ANOMALY":236.2673,"EPHEMERIS_TYPE":0,"CLASSIFICATION_TYPE":"U","NORAD_CAT_ID":43613,"ELEMENT_SET_NO":999,"REV_AT_EPOCH":41730,"BSTAR":0.00014022643,"MEAN_MOTION_DOT":3.87e-5,"MEAN_MOTION_DDOT":0},{"OBJECT_NAME":"STARLINK-36461","OBJECT_ID":"2026-002M","EPOCH":"2026-03-09T01:06:06.803712","MEAN_MOTION":15.27602407,"ECCENTRICITY":0.00015641,"INCLINATION":43.0033,"RA_OF_ASC_NODE":328.6278,"ARG_OF_PERICENTER":266.7783,"MEAN_ANOMALY":93.289,"EPHEMERIS_TYPE":0,"CLASSIFICATION_TYPE":"U","NORAD_CAT_ID":67316,"ELEMENT_SET_NO":999,"REV_AT_EPOCH":1114,"BSTAR":0.0016544228,"MEAN_MOTION_DOT":0.00045577,"MEAN_MOTION_DDOT":0}]
